{
    "links": {
        "self": "http://www.neowsapp.com/rest/v1/neo/3788047?api_key=iIulBulltgU6a56xZRHN4H3l9WmuAYTsLGpBGhQ2"
    },
    "id": "3788047",
    "neo_reference_id": "3788047",
    "name": "(2017 UE6)",
    "designation": "2017 UE6",
    "nasa_jpl_url": "http://ssd.jpl.nasa.gov/sbdb.cgi?sstr=3788047",
    "absolute_magnitude_h": 22.6,
    "estimated_diameter": {
        "kilometers": {
            "estimated_diameter_min": 0.0802703167,
            "estimated_diameter_max": 0.1794898848
        },
        "meters": {
            "estimated_diameter_min": 80.2703167283,
            "estimated_diameter_max": 179.4898847799
        },
        "miles": {
            "estimated_diameter_min": 0.049877647,
            "estimated_diameter_max": 0.1115298092
        },
        "feet": {
            "estimated_diameter_min": 263.3540659348,
            "estimated_diameter_max": 588.8775935812
        }
    },
    "is_potentially_hazardous_asteroid": false,
    "close_approach_data": [
        {
            "close_approach_date": "2017-10-29",
            "close_approach_date_full": "2017-Oct-29 00:48",
            "epoch_date_close_approach": 1509238080000,
            "relative_velocity": {
                "kilometers_per_second": "17.4563493482",
                "kilometers_per_hour": "62842.8576534678",
                "miles_per_hour": "39048.1078569561"
            },
            "miss_distance": {
                "astronomical": "0.2910919151",
                "lunar": "113.2347549739",
                "kilometers": "43546730.473180837",
                "miles": "27058683.5882040706"
            },
            "orbiting_body": "Earth"
        },
        {
            "close_approach_date": "2018-04-11",
            "close_approach_date_full": "2018-Apr-11 13:46",
            "epoch_date_close_approach": 1523454360000,
            "relative_velocity": {
                "kilometers_per_second": "19.6760978114",
                "kilometers_per_hour": "70833.9521210504",
                "miles_per_hour": "44013.4631943271"
            },
            "miss_distance": {
                "astronomical": "0.1719825963",
                "lunar": "66.9012299607",
                "kilometers": "25728230.083549881",
                "miles": "15986780.8570391178"
            },
            "orbiting_body": "Earth"
        }
    ],
    "orbital_data": {
        "orbit_id": "2",
        "orbit_determination_date": "2017-10-28 06:43:15",
        "first_observation_date": "2017-10-24",
        "last_observation_date": "2017-10-28",
        "data_arc_in_days": 4,
        "observations_used": 28,
        "orbit_uncertainty": "9",
        "minimum_orbit_intersection": ".110343",
        "jupiter_tisserand_invariant": "5.363",
        "epoch_osculation": "2458051.5",
        "eccentricity": ".2417602940630636",
        "semi_major_axis": "1.125624825321693",
        "inclination": "34.87550186710415",
        "ascending_node_longitude": "208.8169029963334",
        "orbital_period": "436.2032740946419",
        "perihelion_distance": ".853493436547236",
        "perihelion_argument": "320.7015366101085",
        "aphelion_distance": "1.39775621409615",
        "perihelion_time": "2458190.353787606149",
        "mean_anomaly": "245.4035113744515",
        "mean_motion": ".8253032963752851",
        "equinox": "J2000",
        "orbit_class": {
            "orbit_class_type": "APO",
            "orbit_class_description": "Near-Earth asteroid orbits which cross the Earth’s orbit similar to that of 1862 Apollo",
            "orbit_class_range": "a (semi-major axis) > 1.0 AU; q (perihelion) < 1.017 AU"
        }
    },
    "is_sentry_object": false
}